{
  "last_updated": "2025-12-11T06:00:02.184436",
  "satellites": {
    "98592": {
      "name": "DUTHSat-2",
      "norad_id": "98592",
      "tle": "1 64530U 25135C   25344.26893447  .00021687  00000-0  96470-3 0  9998\n2 64530  97.4498  96.2238 0005935 124.0965 236.0834 15.21491649 26152",
      "epoch": "2025-12-10T06:27:15.938208",
      "fetched_at": "2025-12-11T06:00:02.310669",
      "source": "satnogs"
    },
    "98530": {
      "name": "LAMARR",
      "norad_id": "98530",
      "tle": "1 98530U          25344.03961647 +.00025891 +00000+0 +13195-2 0 00197\n2 98530  97.4371  55.8347 0006233 321.8340  38.2451 15.16732142001719",
      "epoch": "2025-12-10T00:57:02.863008",
      "fetched_at": "2025-12-11T06:00:02.356193",
      "source": "satnogs"
    },
    "98529": {
      "name": "DIRAC",
      "norad_id": "98529",
      "tle": "1 98529U          25343.97188090 +.00024760 +00000+0 +12533-2 0 00155\n2 98529  97.4345  55.7689 0005410 328.6676  31.4234 15.16983288001701",
      "epoch": "2025-12-09T23:19:30.509760",
      "fetched_at": "2025-12-11T06:00:02.399572",
      "source": "satnogs"
    },
    "98518": {
      "name": "MICE-1",
      "norad_id": "98518",
      "tle": "1 98518C 25276Z   25332.82022451 -.00006635  00000+0 -34088-3 0    02\n2 98518  97.4521  44.8306 0005282 340.9975   7.9865 15.16561278    18",
      "epoch": "2025-11-28T19:41:07.397664",
      "fetched_at": "2025-12-11T06:00:02.447123",
      "source": "satnogs"
    }
  },
  "fetch_log": [
    {
      "norad_id": "98592",
      "name": "DUTHSat-2",
      "status": "success",
      "source": "satnogs",
      "timestamp": "2025-12-11T06:00:02.310673"
    },
    {
      "norad_id": "98530",
      "name": "LAMARR",
      "status": "success",
      "source": "satnogs",
      "timestamp": "2025-12-11T06:00:02.356197"
    },
    {
      "norad_id": "98529",
      "name": "DIRAC",
      "status": "success",
      "source": "satnogs",
      "timestamp": "2025-12-11T06:00:02.399575"
    },
    {
      "norad_id": "98518",
      "name": "MICE-1",
      "status": "success",
      "source": "satnogs",
      "timestamp": "2025-12-11T06:00:02.447133"
    }
  ]
}